OBJECT_NAME,OBJECT_ID,EPOCH,MEAN_MOTION,ECCENTRICITY,INCLINATION,RA_OF_ASC_NODE,ARG_OF_PERICENTER,MEAN_ANOMALY,EPHEMERIS_TYPE,CLASSIFICATION_TYPE,NORAD_CAT_ID,ELEMENT_SET_NO,REV_AT_EPOCH,BSTAR,MEAN_MOTION_DOT,MEAN_MOTION_DDOT
SJ-7,2005-024A,2026-06-10T01:17:10.864608,15.21433771,.00169957,97.7292,190.9657,61.1007,299.1930,0,U,28737,999,14694,.33505726E-3,.7481E-4,0
CUBESAT XI-V,2005-043F,2026-06-10T08:04:02.584128,14.72613094,.0013219,98.2977,316.8144,223.4430,136.5736,0,U,28895,999,10074,.20389E-3,.1246E-4,0
CLOUDSAT,2006-016A,2026-06-10T10:01:21.550656,14.86380139,.0005232,98.3930,198.3329,9.4775,350.6537,0,U,29107,999,7350,.10967E-3,.907E-5,0
CALIPSO,2006-016B,2026-06-10T11:41:43.908864,14.69336215,.0001036,98.4470,176.9227,77.6724,282.4597,0,U,29108,999,7207,.16069E-3,.896E-5,0
HINODE (SOLAR-B),2006-041A,2026-06-10T10:34:02.127360,14.68613735,.0016287,98.0549,177.6923,312.9374,47.0465,0,U,29479,999,5388,.11543E-3,.623E-5,0
METOP-A,2006-044A,2026-06-10T12:59:39.697152,14.75951503,.0175238,98.3324,268.0348,90.6462,285.1005,0,U,29499,999,2447,.22829E-3,.1954E-4,0
SHIJIAN-6 02B (SJ-6 02B),2006-046B,2026-06-10T13:09:33.253056,15.01361439,.0014931,97.7165,190.6481,79.4910,280.7996,0,U,29506,999,6974,.12821E-3,.1595E-4,0
DMSP 5D-3 F17 (USA 191),2006-050A,2026-06-10T10:51:03.132576,14.14992132,.0011309,98.7378,168.1600,76.6177,283.6256,0,U,29522,999,1147,.30283E-4,.15E-6,0
LAPAN-TUBSAT,2007-001A,2026-06-10T12:29:33.778176,14.85942627,.0011347,98.1347,160.5945,201.7397,158.3337,0,U,29709,999,5016,-.97368E-6,-.66E-6,0
HAIYANG-1B,2007-010A,2026-06-10T12:03:26.017344,14.31025222,.0012627,98.3491,143.6069,217.0922,142.9390,0,U,31113,999,99967,.46123E-4,.8E-6,0
BEIDOU-2 M1,2007-011A,2026-06-09T11:39:37.139328,1.77349255,.00020501,50.9327,219.5346,317.7003,42.3652,0,U,31115,999,7601,0,.43E-6,0
CAPE-1,2007-012P,2026-06-10T04:52:24.152448,14.64855054,.0084897,98.4458,135.5110,92.9254,268.1668,0,U,31130,999,1733,.23116076E-3,.1247E-4,0
CBERS 2B,2007-042A,2026-06-10T07:29:14.028288,14.41472510,.0031019,98.3923,106.0813,357.9569,121.6677,0,U,32062,999,98369,.77443E-4,.209E-5,0
COSMO-SKYMED 2,2007-059A,2026-06-10T06:35:56.586336,14.82149148,.00014,97.8885,344.9734,85.6888,274.4485,0,U,32376,999,98,.49472761E-4,.342E-5,0
CARTOSAT-2A,2008-021A,2026-06-10T11:38:29.675616,14.79228431,.0012852,97.7638,210.4226,128.5459,231.6907,0,U,32783,999,97781,.93899E-4,.648E-5,0
CUTE-1.7+APD II (CO-65),2008-021C,2026-06-10T11:41:16.681632,15.09389877,.001033,97.8272,142.7662,58.6595,301.5643,0,U,32785,999,98418,.31356E-3,.4949E-4,0
SEEDS II (CO-66),2008-021J,2026-06-10T11:25:37.430688,15.32520473,.0002042,97.7516,159.0539,26.6798,333.4547,0,U,32791,999,98626,.52179E-3,.1632E-3,0
YUBILEINY (RS30),2008-025A,2026-06-10T11:58:56.288640,12.43179176,.0019138,82.5050,359.6014,328.9651,31.0296,0,U,32953,999,81886,.52995E-3,.83E-6,0
FENGYUN 3A,2008-026A,2026-06-10T06:44:29.983776,14.19569781,.0009299,98.6882,102.2433,141.9317,218.2518,0,U,32958,999,93442,.47348E-4,.57E-6,0
HUANJING 1A (HJ-1A),2008-041A,2026-06-10T13:24:04.380192,14.83969771,.0019305,97.6682,147.6533,155.5951,204.6182,0,U,33320,999,95742,.68359E-4,.519E-5,0
HUANJING 1B (HJ-1B),2008-041B,2026-06-10T12:35:13.159968,14.83305713,.0035431,97.6517,150.8126,203.2092,156.7524,0,U,33321,999,95742,.12771E-3,.1004E-4,0
SHIJIAN-6 03A (SJ-6 03A),2008-053A,2026-06-10T12:27:43.182720,15.17103571,.0012348,97.8416,194.6089,41.9024,318.3151,0,U,33408,999,96195,.3453E-3,.6785E-4,0
SHIJIAN-6 03B (SJ-6 03B),2008-053B,2026-06-10T12:21:01.572192,15.04293400,.0021162,97.8588,181.2958,65.6657,294.6775,0,U,33409,999,96174,.11886E-3,.1597E-4,0
CHUANGXIN 1-02 (CX-1-02),2008-056B,2026-06-10T12:16:03.510336,14.30152432,.0014637,98.6141,187.8447,155.3241,204.8644,0,U,33434,999,91766,.10096E-3,.218E-5,0
STARS (KUKAI),2009-002G,2026-06-10T03:04:02.201664,14.95700117,.00083102,98.1539,108.1482,181.5219,178.5977,0,U,33498,999,93742,.34534556E-3,.3784E-4,0
KKS-1 (KISEKI),2009-002H,2026-06-10T12:14:19.387104,14.83106801,.0006916,98.1192,83.8464,321.1426,38.9289,0,U,33499,999,93520,.15146E-3,.1178E-4,0
NOAA 19,2009-005A,2026-06-10T11:12:24.937056,14.13473176,.0014574,98.9520,232.3367,52.5628,307.6868,0,U,33591,999,89353,.36214E-4,.23E-6,0
UK-DMC 2,2009-041C,2026-06-10T12:20:56.702688,14.76027447,.0001224,97.8831,296.6443,84.3508,275.7841,0,U,35683,999,90558,.10598E-3,.681E-5,0
METEOR-M 1,2009-049A,2026-06-10T11:12:01.238400,14.23155436,.0001984,98.7382,123.9887,359.7535,0.3642,0,U,35865,999,86829,.50606E-4,.7E-6,0
OCEANSAT-2,2009-051A,2026-06-10T13:13:58.372320,13.99664544,.0014747,98.2324,149.0647,256.3093,103.6432,0,U,35931,999,87840,.53148E-4,.4E-6,0
SWISSCUBE,2009-051B,2026-06-09T17:04:01.608672,14.62467613,.00055621,98.4042,68.4691,230.1201,129.9511,0,U,35932,999,88806,.19187016E-3,.922E-5,0
BEESAT-1,2009-051C,2026-06-09T23:46:18.750720,14.61708937,.00039263,98.3972,68.4038,245.5037,114.5754,0,U,35933,999,88813,.1560043E-3,.728E-5,0
ITUPSAT1,2009-051E,2026-06-09T23:24:07.439040,14.60430038,.00061248,98.4056,67.5878,261.1078,98.9428,0,U,35935,999,88768,.14898186E-3,.673E-5,0
DMSP 5D-3 F18 (USA 210),2009-057A,2026-06-10T11:51:01.302048,14.14893016,.0009849,98.9035,142.2775,270.8454,89.1591,0,U,35951,999,85864,.14649E-3,.238E-5,0
PROBA-2,2009-059B,2026-06-10T12:00:40.118112,14.54859541,.0012163,98.2450,344.9461,304.8892,55.1161,0,U,36037,999,88055,.49671E-4,.168E-5,0
YAOGAN-7,2009-069A,2026-06-10T06:01:37.445376,14.78002825,.0025903,98.0082,47.1608,63.1573,297.2281,0,U,36110,999,88860,.65583E-4,.423E-5,0
XIWANG-1 (HOPE-1),2009-072B,2026-06-10T11:31:08.659776,13.16437601,.0006809,100.4021,115.4191,248.7236,111.3150,0,U,36122,999,79212,-.58708E-3,-.269E-5,0
RADUGA-1M 2,2010-002A,2026-06-10T04:38:49.748640,0.98969324,.0005791,3.6018,78.9436,266.3368,324.5714,0,U,36358,999,4995,0,-.211E-5,0
COSMOS 2463,2010-017A,2026-06-10T08:00:00.137088,13.71665270,.0037015,82.9607,254.7410,147.3485,274.1330,0,U,36519,999,80699,.19219E-4,.33E-6,0
CARTOSAT-2B,2010-035A,2026-06-10T12:07:13.035072,14.78653953,.0010669,97.9958,212.0975,206.1868,153.8804,0,U,36795,999,85886,.12608E-3,.872E-5,0
AISSAT 1,2010-035C,2026-06-10T11:03:29.524032,14.97330226,.001059,98.0925,60.4671,82.4335,277.8089,0,U,36797,999,86321,.20807E-3,.2354E-4,0
TISAT 1,2010-035E,2026-06-10T03:02:02.135904,15.31440689,.00003997,98.0700,107.0500,178.3205,181.8036,0,U,36799,999,86662,.66907344E-3,.20261E-3,0
YAOGAN-10,2010-038A,2026-06-10T13:23:12.033888,14.85327969,.000163,97.8982,185.0150,88.7905,28.7985,0,U,36834,999,85622,.16381E-3,.1354E-4,0
SHIJIAN-6 04B (SJ-6 04B),2010-051B,2026-06-10T13:10:59.234016,14.99299529,.0008913,97.8686,166.8919,335.4847,24.5950,0,U,37180,999,85468,.95203E-4,.1101E-4,0
FENGYUN 3B,2010-059A,2026-06-10T12:34:01.221600,14.14839840,.0021498,98.9625,207.5101,203.1448,262.9883,0,U,37214,999,80648,.30375E-4,.14E-6,0
COSMO-SKYMED 4,2010-060A,2026-06-10T11:45:49.135392,14.82147837,.0001372,97.8885,345.1868,90.4083,269.7288,0,U,37216,999,84357,.51604E-4,.359E-5,0
O/OREOS (USA 219),2010-062C,2026-06-10T05:32:59.670816,14.93714689,.001241,71.9705,96.0947,78.2875,281.9687,0,U,37224,999,11560,.20614E-3,.2123E-4,0
ELEKTRO-L 1 (GOMS 2),2011-001A,2026-06-10T05:55:48.423072,1.00155788,.0004156,9.6694,54.5745,30.9146,153.4586,0,U,37344,999,5641,0,-.45E-6,0
RESOURCESAT-2,2011-015A,2026-06-10T11:21:10.617984,14.21604955,.0010123,98.7644,228.9610,277.1719,82.8307,0,U,37387,999,78522,.39874E-4,.43E-6,0
YOUTHSAT,2011-015B,2026-06-10T12:01:12.802368,14.25627595,.0014642,98.3679,135.8565,6.8379,115.9717,0,U,37388,999,78668,.85722E-4,.162E-5,0
APRIZESAT 6,2011-044F,2026-06-10T12:41:12.412896,14.76905904,.0044412,98.2371,71.8921,106.6912,67.6097,0,U,37793,999,79616,.96461E-4,.633E-5,0
JUGNU,2011-058B,2026-06-10T06:10:14.788704,14.13774890,.0018562,19.9621,350.5295,359.9630,156.5973,0,U,37839,999,75804,.69141E-4,.399E-5,0
SRMSAT,2011-058D,2026-06-10T12:35:17.199168,14.11574150,.0011923,19.9713,99.7947,130.6142,29.5560,0,U,37841,999,75687,.49378E-4,.356E-5,0
SUOMI NPP,2011-061A,2026-06-10T12:04:53.088672,14.19516022,.0001905,98.7953,102.4251,22.0599,338.0658,0,U,37849,999,75749,.50274E-4,.62E-6,0
YAOGAN-12,2011-066B,2026-06-10T12:20:27.269664,15.26526950,.0008211,97.1150,200.3970,244.5900,115.4490,0,U,37875,999,81102,.40249E-3,.1046E-3,0
BEIDOU-2 M4,2012-018B,2026-06-09T14:29:07.108800,1.86229817,.00111465,55.6651,304.3456,277.0468,82.8157,0,U,38251,999,9580,0,-.6E-6,0
ARIRANG-3 (KOMPSAT-3),2012-025B,2026-06-10T12:45:46.749312,14.62200289,.000641,98.1175,119.1067,126.3171,233.8623,0,U,38338,999,75037,.79989E-4,.356E-5,0
HORYU-2,2012-025D,2026-06-10T07:51:04.119264,14.91028242,.0007763,98.2163,293.9838,195.3167,164.7817,0,U,38340,999,74770,.32995E-3,.3205E-4,0
CSSWE,2012-048D,2026-06-10T07:09:34.019424,15.44128090,.0048114,64.6611,116.8214,175.9164,184.2376,0,U,38761,999,11533,.51229E-3,.24446E-3,0
CP5,2012-048F,2026-06-10T07:47:44.397888,15.27616329,.0079867,64.6434,175.2658,178.5541,181.5835,0,U,38763,999,11571,.33101E-3,.9642E-4,0
METOP-B,2012-049A,2026-06-10T10:22:09.469920,14.21430846,.0002633,98.6506,213.0658,35.6380,324.4973,0,U,38771,999,71230,.57227E-4,.82E-6,0
SJ-9A,2012-056A,2026-06-10T11:53:57.619392,14.85460212,.0023921,97.6705,133.6893,280.2199,79.6319,0,U,38860,999,69859,.14215E-3,.1179E-4,0
COSMOS 2484 (RODNIK-S 6),2013-001C,2026-06-10T13:05:40.356672,12.42938807,.0027116,82.5019,226.0213,50.7685,309.5796,0,U,39059,999,60773,-.8524E-4,-.2E-7,0
SARAL,2013-009A,2026-06-10T11:26:37.654080,14.32854256,.0001076,98.5557,348.1292,344.1374,15.9776,0,U,39086,999,69464,.45293E-4,.8E-6,0
AAUSAT 3,2013-009B,2026-06-10T05:33:52.379136,14.39930829,.0010389,98.3702,345.1844,228.8767,131.1525,0,U,39087,999,69617,.19332E-3,.565E-5,0
STRAND-1,2013-009E,2026-06-10T05:35:36.828096,14.37159178,.0007466,98.3921,341.6387,249.0407,110.9981,0,U,39090,999,69606,.1011E-3,.258E-5,0
